     2.10           N: GNSS NAV DATA    E: Galileo          RINEX VERSION / TYPE
RTKCONV 2.4.2                           20231221 000318 UTC PGM / RUN BY / DATE 
log: C:\Users\adminlocal\Desktop\verniquet\verniquet\micro  COMMENT             
format: u-blox                                              COMMENT             
                                                            END OF HEADER       
E24 2023 12 20 10  0  0 -.496035150718E-03 -.209894324144E-10  .000000000000E+00
      .108000000000E+03  .108781250000E+03  .327085052977E-08 -.106789991985E+01
      .503286719322E-05  .709439162165E-03  .733509659767E-05  .544062386513E+04
      .295200000000E+06 -.242143869400E-07  .281783774692E+01 -.558793544769E-08
      .965518452416E+00  .183531250000E+03  .780224536055E+00 -.573345310705E-08
      .146077513286E-09  .100000000000E+01  .229300000000E+04  .000000000000E+00
      .327670000000E+05  .000000000000E+00 -.256113708019E-08 -.349245965481E-08
      .295909000000E+06  .000000000000E+00
E15 2023 12 20  9 40  0 -.756774097681E-04 -.200373051484E-11  .000000000000E+00
      .106000000000E+03 -.553125000000E+01  .241045754809E-08  .279533285009E+01
     -.448897480965E-06  .380639336072E-03  .946223735809E-05  .544060584068E+04
      .294000000000E+06  .372529029846E-08 -.137837300352E+01 -.372529029846E-08
      .999725908288E+00  .154062500000E+03 -.139041062055E+01 -.531950729312E-08
      .200008331150E-10  .100000000000E+01  .229300000000E+04  .000000000000E+00
      .327670000000E+05  .000000000000E+00  .582076609135E-08  .651925802231E-08
      .295909000000E+06  .000000000000E+00
E 9 2023 12 20 10  0  0 -.269556127023E-03 -.136424205266E-10  .000000000000E+00
      .108000000000E+03 -.811562500000E+02  .349550274458E-08  .119139185839E+01
     -.374577939510E-05  .165386823937E-03  .553764402866E-05  .544060322762E+04
      .295200000000E+06  .353902578354E-07  .714723129533E+00  .372529029846E-08
      .965943789996E+00  .223406250000E+03  .612568778668E+00 -.582309969833E-08
     -.116790579082E-09  .100000000000E+01  .229300000000E+04  .000000000000E+00
      .327670000000E+05  .000000000000E+00  .139698386192E-08  .139698386192E-08
      .295909000000E+06  .000000000000E+00
E 5 2023 12 20 10  0  0  .470227893675E-02  .369482222595E-11  .000000000000E+00
      .108000000000E+03 -.875312500000E+02  .354729061604E-08 -.155367011161E+01
     -.397302210331E-05  .998019240797E-04  .588037073612E-05  .544060299683E+04
      .295200000000E+06  .633299350739E-07  .715458861756E+00 -.391155481339E-07
      .960041213982E+00  .212625000000E+03  .254832810741E+01 -.588203072448E-08
     -.116076263614E-09  .100000000000E+01  .229300000000E+04  .000000000000E+00
      .327670000000E+05  .000000000000E+00  .372529029846E-08  .419095158577E-08
      .295909000000E+06  .000000000000E+00
E 4 2023 12 20 10  0  0 -.284325040411E-03 -.873967564985E-11  .000000000000E+00
      .108000000000E+03 -.794375000000E+02  .356800576462E-08 -.100910323219E+01
     -.370107591152E-05  .994252040982E-04  .589527189732E-05  .544061430740E+04
      .295200000000E+06  .242143869400E-07  .715565218826E+00  .204890966415E-07
      .960066424449E+00  .212750000000E+03 -.270591544083E+01 -.587524472753E-08
     -.160363822654E-09  .100000000000E+01  .229300000000E+04  .000000000000E+00
      .327670000000E+05  .000000000000E+00 -.302679836750E-08 -.349245965481E-08
      .295939000000E+06  .000000000000E+00
E 9 2023 12 20 10 10  0 -.269564334303E-03 -.136424205266E-10  .000000000000E+00
      .109000000000E+03 -.805000000000E+02  .349764569098E-08  .126626760300E+01
     -.371597707272E-05  .165408477187E-03  .554323196411E-05  .544060305977E+04
      .295800000000E+06  .353902578354E-07  .714719640473E+00  .372529029846E-08
      .965943718313E+00  .223281250000E+03  .612078974678E+00 -.582345685607E-08
     -.117147736816E-09  .100000000000E+01  .229300000000E+04  .000000000000E+00
      .327670000000E+05  .000000000000E+00  .139698386192E-08  .139698386192E-08
      .296479000000E+06  .000000000000E+00
E 5 2023 12 20 10 10  0  .470228103222E-02  .368061137124E-11  .000000000000E+00
      .109000000000E+03 -.873125000000E+02  .355514808619E-08 -.148120041227E+01
     -.396370887756E-05  .996564049274E-04  .580400228500E-05  .544060251999E+04
      .295800000000E+06  .614672899246E-07  .715455295162E+00 -.298023223877E-07
      .960041118892E+00  .214531250000E+03  .255024428725E+01 -.588167356674E-08
     -.110004582132E-09  .100000000000E+01  .229300000000E+04  .000000000000E+00
      .327670000000E+05  .000000000000E+00  .372529029846E-08  .419095158577E-08
      .296479000000E+06  .000000000000E+00
E 4 2023 12 20 10 10  0 -.284330337308E-03 -.873967564985E-11  .000000000000E+00
      .109000000000E+03 -.795937500000E+02  .357229165743E-08 -.935348789420E+00
     -.370852649212E-05  .992662971839E-04  .596046447754E-05  .544061396790E+04
      .295800000000E+06  .204890966415E-07  .715561700508E+00  .204890966415E-07
      .960066319119E+00  .211406250000E+03 -.270528441551E+01 -.587703051620E-08
     -.160363822654E-09  .100000000000E+01  .229300000000E+04  .000000000000E+00
      .327670000000E+05  .000000000000E+00 -.302679836750E-08 -.349245965481E-08
      .296479000000E+06  .000000000000E+00
E24 2023 12 20 10 10  0 -.496047665365E-03 -.209752215596E-10  .000000000000E+00
      .109000000000E+03  .108625000000E+03  .327477926484E-08 -.993527142565E+00
      .502914190292E-05  .709415413439E-03  .733509659767E-05  .544062381744E+04
      .295800000000E+06 -.260770320892E-07  .281783431198E+01 -.931322574615E-08
      .965518516785E+00  .183406250000E+03  .780236749958E+00 -.573702468439E-08
      .147148986489E-09  .100000000000E+01  .229300000000E+04  .000000000000E+00
      .327670000000E+05  .000000000000E+00 -.256113708019E-08 -.349245965481E-08
      .296479000000E+06  .000000000000E+00
E15 2023 12 20 10 20  0 -.756820081733E-04 -.198951966013E-11  .000000000000E+00
      .110000000000E+03 -.856250000000E+01  .238724229537E-08  .309331380126E+01
     -.515952706337E-06  .380280776881E-03  .948458909988E-05  .544060662270E+04
      .296400000000E+06  .149011611938E-07 -.137838570604E+01 -.186264514923E-08
      .999725963879E+00  .152968750000E+03 -.139085032252E+01 -.532450750140E-08
      .135719938995E-10  .100000000000E+01  .229300000000E+04  .000000000000E+00
      .327670000000E+05  .000000000000E+00  .582076609135E-08  .651925802231E-08
      .297559000000E+06  .000000000000E+00
E 5 2023 12 20 10 20  0  .470228318591E-02  .368061137124E-11  .000000000000E+00
      .110000000000E+03 -.868125000000E+02  .356300555634E-08 -.140856514864E+01
     -.394508242607E-05  .995022710413E-04  .573135912418E-05  .544060205841E+04
      .296400000000E+06  .577419996262E-07  .715451732956E+00 -.204890966415E-07
      .960041032580E+00  .216343750000E+03  .255199493206E+01 -.588095925127E-08
     -.105004373854E-09  .100000000000E+01  .229300000000E+04  .000000000000E+00
      .327670000000E+05  .000000000000E+00  .372529029846E-08  .419095158577E-08
      .297559000000E+06  .000000000000E+00
E 9 2023 12 20 10 20  0 -.269572599791E-03 -.136566313813E-10  .000000000000E+00
      .110000000000E+03 -.798750000000E+02  .349943147965E-08  .134111399855E+01
     -.368431210518E-05  .165434787050E-03  .555254518986E-05  .544060289764E+04
      .296400000000E+06  .353902578354E-07  .714716152877E+00  .558793544769E-08
      .965943645167E+00  .223093750000E+03  .611618529990E+00 -.582417117154E-08
     -.117862052285E-09  .100000000000E+01  .229300000000E+04  .000000000000E+00
      .327670000000E+05  .000000000000E+00  .139698386192E-08  .139698386192E-08
      .297559000000E+06  .000000000000E+00
E 4 2023 12 20 10 20  0 -.284335634205E-03 -.875388650456E-11  .000000000000E+00
      .110000000000E+03 -.799375000000E+02  .357622039251E-08 -.861472927371E+00
     -.372715294361E-05  .991035485640E-04  .602565705776E-05  .544061363029E+04
      .296400000000E+06  .186264514923E-07  .715558179265E+00  .186264514923E-07
      .960066213789E+00  .210093750000E+03 -.270477479337E+01 -.587845914713E-08
     -.160006664920E-09  .100000000000E+01  .229300000000E+04  .000000000000E+00
      .327670000000E+05  .000000000000E+00 -.302679836750E-08 -.349245965481E-08
      .297559000000E+06  .000000000000E+00
E24 2023 12 20 10 20  0 -.496060180012E-03 -.209752215596E-10  .000000000000E+00
      .110000000000E+03  .108750000000E+03  .327692221125E-08 -.919128356060E+00
      .503659248352E-05  .709435320459E-03  .732578337193E-05  .544062386131E+04
      .296400000000E+06 -.279396772385E-07  .281783087413E+01 -.130385160446E-07
      .965518582616E+00  .183531250000E+03  .780222995602E+00 -.574023910400E-08
      .148220459691E-09  .100000000000E+01  .229300000000E+04  .000000000000E+00
      .327670000000E+05  .000000000000E+00 -.256113708019E-08 -.349245965481E-08
      .297559000000E+06  .000000000000E+00
E15 2023 12 20 10 30  0 -.756831141189E-04 -.197530880541E-11  .000000000000E+00
      .111000000000E+03 -.109062500000E+02  .237652756334E-08 -.311507314675E+01
     -.605359673500E-06  .380037818104E-03  .949203968048E-05  .544060719872E+04
      .297000000000E+06  .167638063431E-07 -.137838888789E+01  .000000000000E+00
      .999725972657E+00  .152843750000E+03 -.139126326919E+01 -.532557897460E-08
      .125005206969E-10  .100000000000E+01  .229300000000E+04  .000000000000E+00
      .327670000000E+05  .000000000000E+00  .582076609135E-08  .651925802231E-08
      .297679000000E+06  .000000000000E+00
